[{"OBJECT_ID":"2010-041P","OBJECT_NAME":"SL-12 DEB","NORAD_CAT_ID":"42974","OBJECT_TYPE":"DEBRIS","PERIOD":"335.989","INCLINATION":"64.8172","ECCENTRICITY":"0.57366740","MEAN_MOTION":"4.28585247","TLE_LINE1":"1 42974U 10041P   21271.34998463 -.00000036  00000-0  11689-3 0  9999","TLE_LINE2":"2 42974  64.8172 358.4615 5736674  16.6842 356.2717  4.28585247 63659"},{"OBJECT_ID":"2010-041T","OBJECT_NAME":"SL-12 DEB","NORAD_CAT_ID":"42978","OBJECT_TYPE":"DEBRIS","PERIOD":"319.184","INCLINATION":"65.4269","ECCENTRICITY":"0.55460210","MEAN_MOTION":"4.51150256","TLE_LINE1":"1 42978U 10041T   21270.13899726  .00000738  00000-0  19708-2 0  9998","TLE_LINE2":"2 42978  65.4269 329.2628 5546021 348.8623   2.7563  4.51150256 66861"},{"OBJECT_ID":"2010-041U","OBJECT_NAME":"SL-12 DEB","NORAD_CAT_ID":"42979","OBJECT_TYPE":"DEBRIS","PERIOD":"336.911","INCLINATION":"64.7803","ECCENTRICITY":"0.57728260","MEAN_MOTION":"4.27412680","TLE_LINE1":"1 42979U 10041U   21271.50311932  .00002050  00000-0  19953-2 0  9990","TLE_LINE2":"2 42979  64.7803 357.0592 5772826  17.3001 356.1859  4.27412680 63157"},{"OBJECT_ID":"2010-041V","OBJECT_NAME":"SL-12 DEB","NORAD_CAT_ID":"42980","OBJECT_TYPE":"DEBRIS","PERIOD":"337.809","INCLINATION":"64.7628","ECCENTRICITY":"0.56590640","MEAN_MOTION":"4.26275761","TLE_LINE1":"1 42980U 10041V   21265.47791339  .00006213  00000-0  30289-1 0  9993","TLE_LINE2":"2 42980  64.7628  20.8662 5659064  13.0783 356.9329  4.26275761 62105"},{"OBJECT_ID":"2010-041W","OBJECT_NAME":"SL-12 DEB","NORAD_CAT_ID":"42981","OBJECT_TYPE":"DEBRIS","PERIOD":"320.579","INCLINATION":"65.5912","ECCENTRICITY":"0.55402140","MEAN_MOTION":"4.49187221","TLE_LINE1":"1 42981U 10041W   21271.43312832  .00000244  00000-0  99770-3 0  9994","TLE_LINE2":"2 42981  65.5912 336.0238 5540214 343.6907   6.9685  4.49187221 66275"},{"OBJECT_ID":"2018-012D","OBJECT_NAME":"ARIANE 5 DEB (SYLDA)","NORAD_CAT_ID":"43177","OBJECT_TYPE":"DEBRIS","PERIOD":"733.992","INCLINATION":"20.4342","ECCENTRICITY":"0.75494230","MEAN_MOTION":"1.96187522","TLE_LINE1":"1 43177U 18012D   21272.07324505  .00009385  00000-0  21715-2 0  9997","TLE_LINE2":"2 43177  20.4342 169.6009 7549423 266.2683  13.7774  1.96187522 25666"},{"OBJECT_ID":"2018-033C","OBJECT_NAME":"ARIANE 5 DEB (SYLDA)","NORAD_CAT_ID":"43273","OBJECT_TYPE":"DEBRIS","PERIOD":"411.913","INCLINATION":"2.7814","ECCENTRICITY":"0.63792910","MEAN_MOTION":"3.49588397","TLE_LINE1":"1 43273U 18033C   21271.33317142  .00017604  00000-0  31361-2 0  9995","TLE_LINE2":"2 43273   2.7814  23.3489 6379291  89.8770 337.8870  3.49588397 35132"},{"OBJECT_ID":"1963-014FL","OBJECT_NAME":"WESTFORD NEEDLES","NORAD_CAT_ID":"43288","OBJECT_TYPE":"DEBRIS","PERIOD":"165.749","INCLINATION":"86.9009","ECCENTRICITY":"0.12917490","MEAN_MOTION":"8.68782164","TLE_LINE1":"1 43288U 63014FL  21271.56213264 -.00000059  00000-0 -11561-1 0  9992","TLE_LINE2":"2 43288  86.9009 286.6461 1291749 281.5366  64.3571  8.68782164218980"},{"OBJECT_ID":"1989-001Y","OBJECT_NAME":"SL-12 DEB","NORAD_CAT_ID":"43334","OBJECT_TYPE":"DEBRIS","PERIOD":"146.543","INCLINATION":"64.6295","ECCENTRICITY":"0.17112290","MEAN_MOTION":"9.82644788","TLE_LINE1":"1 43334U 89001Y   21262.14398594  .00009102  00000-0  16632+0 0  9990","TLE_LINE2":"2 43334  64.6295 185.6222 1711229 200.1669 152.2723  9.82644788218452"},{"OBJECT_ID":"2018-036D","OBJECT_NAME":"ATLAS CENTAUR DEB","NORAD_CAT_ID":"43342","OBJECT_TYPE":"DEBRIS","PERIOD":"1407.246","INCLINATION":"2.8835","ECCENTRICITY":"0.00194800","MEAN_MOTION":"1.02327513","TLE_LINE1":"1 43342U 18036D   21271.98922948 -.00000223  00000-0  00000+0 0  9995","TLE_LINE2":"2 43342   2.8835  86.5602 0019480 117.7312 242.8464  1.02327513  7668"},{"OBJECT_ID":"1997-029D","OBJECT_NAME":"FENGYUN 2A DEB","NORAD_CAT_ID":"43355","OBJECT_TYPE":"DEBRIS","PERIOD":"1435.117","INCLINATION":"14.7399","ECCENTRICITY":"0.00851810","MEAN_MOTION":"1.00340232","TLE_LINE1":"1 43355U 97029D   21258.80717772 -.00000234  00000-0  00000-0 0  9994","TLE_LINE2":"2 43355  14.7399  10.7026 0085181   5.0216 355.0838  1.00340232 25204"},{"OBJECT_ID":"1999-040H","OBJECT_NAME":"IUS DEB","NORAD_CAT_ID":"43360","OBJECT_TYPE":"DEBRIS","PERIOD":"203.009","INCLINATION":"27.8898","ECCENTRICITY":"0.35571340","MEAN_MOTION":"7.09329374","TLE_LINE1":"1 43360U 99040H   21271.45222914 -.00000711  00000-0 -10690-1 0  9998","TLE_LINE2":"2 43360  27.8898   7.4894 3557134  63.5889 328.4792  7.09329374235558"},{"OBJECT_ID":"1999-040J","OBJECT_NAME":"IUS DEB","NORAD_CAT_ID":"43361","OBJECT_TYPE":"DEBRIS","PERIOD":"199.258","INCLINATION":"28.0803","ECCENTRICITY":"0.37066700","MEAN_MOTION":"7.22680028","TLE_LINE1":"1 43361U 99040J   21271.61377013 -.00001191  00000-0 -55281-2 0  9997","TLE_LINE2":"2 43361  28.0803 259.4931 3706670 222.9977 101.2674  7.22680028158831"},{"OBJECT_ID":"1999-040K","OBJECT_NAME":"IUS DEB","NORAD_CAT_ID":"43362","OBJECT_TYPE":"DEBRIS","PERIOD":"202.724","INCLINATION":"28.2454","ECCENTRICITY":"0.39269250","MEAN_MOTION":"7.10323775","TLE_LINE1":"1 43362U 99040K   21271.35208105  .00000059  00000-0  87316-4 0  9990","TLE_LINE2":"2 43362  28.2454 356.5806 3926925  51.2422 337.8306  7.10323775145768"},{"OBJECT_ID":"1999-040L","OBJECT_NAME":"IUS DEB","NORAD_CAT_ID":"43363","OBJECT_TYPE":"DEBRIS","PERIOD":"169.384","INCLINATION":"28.3320","ECCENTRICITY":"0.32979570","MEAN_MOTION":"8.50138495","TLE_LINE1":"1 43363U 99040L   21243.41342917  .00022517  00000-0  76445-2 0  9999","TLE_LINE2":"2 43363  28.3320 159.7407 3297957 227.6403  99.3627  8.50138495248191"},{"OBJECT_ID":"1999-040N","OBJECT_NAME":"IUS DEB","NORAD_CAT_ID":"43365","OBJECT_TYPE":"DEBRIS","PERIOD":"196.974","INCLINATION":"28.1601","ECCENTRICITY":"0.35933520","MEAN_MOTION":"7.31059157","TLE_LINE1":"1 43365U 99040N   21272.28647954 -.00003463  00000-0 -22247-1 0  9998","TLE_LINE2":"2 43365  28.1601 262.3486 3593352 189.2010 161.9394  7.31059157127958"},{"OBJECT_ID":"1999-040Q","OBJECT_NAME":"IUS DEB","NORAD_CAT_ID":"43367","OBJECT_TYPE":"DEBRIS","PERIOD":"205.136","INCLINATION":"28.1681","ECCENTRICITY":"0.38508460","MEAN_MOTION":"7.01974627","TLE_LINE1":"1 43367U 99040Q   21272.42081275 -.00001060  00000-0 -43659-2 0  9996","TLE_LINE2":"2 43367  28.1681   7.0815 3850846  40.0939 342.8200  7.01974627225721"},{"OBJECT_ID":"2002-003F","OBJECT_NAME":"H-2A DEB","NORAD_CAT_ID":"43371","OBJECT_TYPE":"DEBRIS","PERIOD":"310.928","INCLINATION":"28.8891","ECCENTRICITY":"0.55818860","MEAN_MOTION":"4.63129959","TLE_LINE1":"1 43371U 02003F   21252.83457529  .00050756  00000-0  19203-1 0  9997","TLE_LINE2":"2 43371  28.8891 108.6499 5581886 124.7187 301.0949  4.63129959121596"},{"OBJECT_ID":"2003-061C","OBJECT_NAME":"CZ-2C DEB","NORAD_CAT_ID":"43373","OBJECT_TYPE":"DEBRIS","PERIOD":"403.337","INCLINATION":"18.9220","ECCENTRICITY":"0.63070150","MEAN_MOTION":"3.57021418","TLE_LINE1":"1 43373U 03061C   21266.16246440  .00001380  00000-0  47346-3 0  9993","TLE_LINE2":"2 43373  18.9220 127.0160 6307015  26.0704 355.4169  3.57021418165783"},{"OBJECT_ID":"2007-052AC","OBJECT_NAME":"SL-12 DEB","NORAD_CAT_ID":"43376","OBJECT_TYPE":"DEBRIS","PERIOD":"351.732","INCLINATION":"65.6250","ECCENTRICITY":"0.56349800","MEAN_MOTION":"4.09403015","TLE_LINE1":"1 43376U 07052AC  21266.43609615 -.00000188  00000-0 -32677-2 0  9994","TLE_LINE2":"2 43376  65.6250 248.4459 5634980 301.2211  15.4483  4.09403015102633"},{"OBJECT_ID":"2008-020C","OBJECT_NAME":"SL-23 DEB","NORAD_CAT_ID":"43381","OBJECT_TYPE":"DEBRIS","PERIOD":"858.180","INCLINATION":"58.1208","ECCENTRICITY":"0.06592250","MEAN_MOTION":"1.67796902","TLE_LINE1":"1 43381U 08020C   21271.58944208  .00000002  00000-0  00000+0 0  9993","TLE_LINE2":"2 43381  58.1208  73.0514 0659225 181.3527 178.2242  1.67796902 73149"},{"OBJECT_ID":"2008-030E","OBJECT_NAME":"ARIANE 5 DEB","NORAD_CAT_ID":"43382","OBJECT_TYPE":"DEBRIS","PERIOD":"583.833","INCLINATION":"1.8460","ECCENTRICITY":"0.71140460","MEAN_MOTION":"2.46645673","TLE_LINE1":"1 43382U 08030E   21271.76749865  .00001843  00000-0  12082-2 0  9997","TLE_LINE2":"2 43382   1.8460  71.5610 7114046 128.7590 320.1272  2.46645673 70148"},{"OBJECT_ID":"2008-030F","OBJECT_NAME":"ARIANE 5 DEB","NORAD_CAT_ID":"43383","OBJECT_TYPE":"DEBRIS","PERIOD":"620.497","INCLINATION":"3.0032","ECCENTRICITY":"0.70723600","MEAN_MOTION":"2.32071940","TLE_LINE1":"1 43383U 08030F   21271.21806209  .00002289  00000-0  49924-1 0  9993","TLE_LINE2":"2 43383   3.0032   4.4037 7072360 281.3297  12.9598  2.32071940106724"},{"OBJECT_ID":"2008-030G","OBJECT_NAME":"ARIANE 5 DEB","NORAD_CAT_ID":"43384","OBJECT_TYPE":"DEBRIS","PERIOD":"627.922","INCLINATION":"1.7482","ECCENTRICITY":"0.72038440","MEAN_MOTION":"2.29327762","TLE_LINE1":"1 43384U 08030G   21268.82610446 -.00000086  00000-0  27581-3 0  9994","TLE_LINE2":"2 43384   1.7482 271.9451 7203844 103.3440 338.7587  2.29327762106477"},{"OBJECT_ID":"2009-009D","OBJECT_NAME":"SL-23 DEB","NORAD_CAT_ID":"43385","OBJECT_TYPE":"DEBRIS","PERIOD":"650.880","INCLINATION":"34.6191","ECCENTRICITY":"0.69563630","MEAN_MOTION":"2.21238828","TLE_LINE1":"1 43385U 09009D   21271.35878808 -.00000018  00000-0  00000-0 0  9991","TLE_LINE2":"2 43385  34.6191 299.2912 6956363 343.1513   5.2926  2.21238828 66395"},{"OBJECT_ID":"2012-002D","OBJECT_NAME":"FENGYUN 2F DEB","NORAD_CAT_ID":"43396","OBJECT_TYPE":"DEBRIS","PERIOD":"1436.058","INCLINATION":"5.0687","ECCENTRICITY":"0.01616740","MEAN_MOTION":"1.00274497","TLE_LINE1":"1 43396U 12002D   21268.86470044 -.00000428  00000-0  00000-0 0  9997","TLE_LINE2":"2 43396   5.0687  72.6442 0161674 247.8480 110.6350  1.00274497 25463"},{"OBJECT_ID":"2012-026N","OBJECT_NAME":"BREEZE-M DEB","NORAD_CAT_ID":"43401","OBJECT_TYPE":"DEBRIS","PERIOD":"819.127","INCLINATION":"11.1338","ECCENTRICITY":"0.41279090","MEAN_MOTION":"1.75796957","TLE_LINE1":"1 43401U 12026N   21272.35214894 -.00000097  00000-0  00000+0 0  9999","TLE_LINE2":"2 43401  11.1338 283.2026 4127909 133.6299 305.2865  1.75796957 58568"}]